0367P         2025 01 12.4047  2.524755  0.279971  172.8757   58.7220    8.4610  20220109  17.5  2.0  367P/Catalina                                            MPC112395
0368P         2018 09 15.0082  2.064041  0.626612  118.8306  257.9097   15.4808  20220109  14.0  4.0  368P/NEAT                                                MPC114610
0369P         2018 10 15.4922  1.951402  0.554794   13.1619   47.2910   10.3182  20220109  15.0  4.0  369P/Hill                                                MPC114610
0370P         2018 06  9.9634  2.477844  0.614903  356.6827   55.0962   19.4122  20220109  13.0  4.0  370P/NEAT                                                MPEC 2021-F20
0371P         2018 10  5.3962  2.187067  0.476889  308.4933   67.2771   17.3795  20220109  16.0  4.0  371P/LINEAR-Skiff                                        MPC114610
0372P         2018 10 23.0296  3.817827  0.152718   27.4402  325.8170    9.5096  20220109  13.5  4.0  372P/McNaught                                            MPEC 2020-K19
0373P         2019 04  8.7439  2.310421  0.392391  221.0542  231.9508   13.7649  20220109  14.5  4.0  373P/Rinner                                              MPEC 2021-F20
0374P         2019 01 11.0008  2.671126  0.462838   51.4617    7.9132   10.7658  20220109  14.0  4.0  374P/Larson                                              MPC114610
0375P         2018 12 20.8351  1.896047  0.658593  119.4183  359.9499   17.3614  20220109  16.0  4.0  375P/Hill                                                MPEC 2021-F20
0376P         2019 09 25.4792  2.805119  0.516934  284.5689  314.5702    1.1852  20220109  12.5  4.0  376P/LONEOS                                              MPEC 2021-S45
0377P         2020 07 12.0300  5.017779  0.251981  355.0515  226.0632    9.0238  20220109   9.5  4.0  377P/Scotti                                              MPEC 2021-N06
0378P         2020 10 18.4007  3.375650  0.469181  193.7929   94.2836   19.0453  20220109  12.0  4.0  378P/McNaught                                            MPEC 2021-Y10
0379P         2019 08  1.2769  2.316754  0.341147   30.7794  183.8226   12.4389  20220109  15.0  4.0  379P/Spacewatch                                          MPC115889
0380P         2019 05 30.5755  2.973102  0.335888   87.2727  132.8649    8.2594  20220109  12.5  4.0  380P/PANSTARRS                                           MPEC 2020-KB7
0381P         2019 09 27.1457  2.267625  0.681920  173.2166  173.7617   28.3777  20220109  17.5  2.0  381P/LINEAR-Spacewatch                                   MPEC 2021-J28
0382P         2022 02 24.5775  4.419170  0.318432  171.7390  173.8630    8.2180  20220109   8.0  4.0  382P/Larson                                              MPEC 2022-A21
0383P         2019 10 26.4182  1.419857  0.599593  133.7234  207.8470   12.3226  20220109  18.0  4.0  383P/Christensen                                         MPC118844
0384P         2019 10 11.7456  1.114339  0.615836   37.6172  354.2302    7.2845  20220109  19.5  4.0  384P/Kowalski                                            MPEC 2021-S45
0385P         2019 09 15.0641  2.565785  0.401704   44.3247  357.0606   16.8317  20220109  13.0  4.0  385P/Hill                                                MPEC 2021-F20
0386P         2020 08 19.1494  2.367272  0.416234  353.1813  134.9455   15.2297  20220109  14.5  4.0  386P/PANSTARRS                                           MPEC 2021-L04
0387P         2019 09  6.3951  1.265004  0.736331  162.7742  259.2939    8.9221  20220109  15.0  4.0  387P/Boattini                                            MPEC 2021-J28
0388P         2019 07 23.6775  2.001616  0.618208   42.3315   37.0419   23.8764  20220109  13.0  4.0  388P/Gibbs                                               MPEC 2021-S45
0390P         2020 03 22.4034  1.699548  0.707282  232.3613  152.2747   18.5620  20220109  12.0  4.0  390P/Gibbs                                               MPEC 2021-S45
0391P         2018 03 22.1320  4.117432  0.120399  187.1591  124.7345   21.2740  20220109   8.0  4.0  391P/Kowalski                                            MPEC 2021-F20
0392P         2020 03 31.8022  1.948323  0.682853   71.9270   24.8827    4.9312  20220109  14.5  4.0  392P/LINEAR                                              MPEC 2021-J28
0393P         2019 10 27.4014  4.211000  0.120680  328.4570   36.4075   16.7888  20220109  11.0  4.0  393P/Spacewatch-Hill                                     MPEC 2021-BE3
0394P         2019 11 30.0939  2.739039  0.367634   54.5092   98.1252    8.5294  20220109  16.0  2.4  394P/PANSTARRS                                           MPEC 2020-KB7
0395P         2021 12 30.4325  4.064882  0.380747   89.8708  223.6395    3.2762  20220109  10.0  4.0  395P/Catalina-NEAT                                       MPEC 2021-Y10
0396P         2019 08 28.0845  3.980603  0.415748    8.5272  136.6626    5.4364  20220109  12.0  4.0  396P                                                     MPEC 2020-KB7
0397P         2020 06 19.5163  2.277278  0.405201   14.4698    8.1974   10.9291  20220109  12.0  4.0  397P/Lemmon                                              MPEC 2021-O56
0398P         2020 12 26.7525  1.305163  0.582702  320.2163  127.4583   11.0153  20220109  15.5  4.0  398P/Boattini                                            MPEC 2021-L04
0399P         2021 05 22.6056  2.096062  0.447079  214.3103  207.1403   13.3188  20220109  14.0  4.0  399P/PANSTARRS                                           MPEC 2022-A21
0400P         2021 02 10.1645  2.103354  0.409310  238.8083  176.3921   10.9296  20220109  15.5  2.8  400P/PANSTARRS                                           MPEC 2020-FB5
0401P         2019 12  7.0866  2.425418  0.579965  309.3732  359.8803   12.8027  20220109  12.5  4.0  401P/McNaught                                            MPEC 2021-R75
0402P         2021 12 14.5814  3.937837  0.438716  326.7365  123.0919   30.8511  20220109   8.0  4.0  402P/LINEAR                                              MPEC 2022-A21
0403P         2020 09 16.3647  2.694614  0.503565  277.6537  163.8124   12.3216  20220109  12.0  4.0  403P/Catalina                                            MPEC 2021-J28
0404P         2023 10  9.6722  4.145605  0.135791  165.3709  260.9964    9.7143  20220109  10.0  4.0  404P/Bressi                                              MPEC 2021-WD8
0405P         2020 12 24.2969  1.121563  0.689128  112.2219    3.3147    9.3655  20220109  17.5  4.0  405P/Lemmon                                              MPEC 2021-L04
0406P         2020 09 15.7904  1.637318  0.542059  352.3998   11.4745    1.2135  20220109  17.0  4.0  406P/Gibbs                                               MPEC 2021-F20
0407P         2020 02  1.3103  2.135700  0.383739   92.9548   80.7146    4.8838  20220109  14.0  4.0  407P/PANSTARRS-Fuls                                      MPEC 2021-F20
0408P         2022 10  4.1322  3.468127  0.270157  226.3135  189.4363   19.3505  20220109  11.0  4.0  408P/Novichonok-Gerke                                    MPEC 2022-A21
0409P         2021 01 28.1267  1.753979  0.709826   15.1232  143.6705   17.1190  20220109  14.0  4.0  409P/LONEOS-Hill                                         MPEC 2021-UA9
0410P         2021 06 23.5598  3.246949  0.510702  313.0921  139.9806    9.3936  20220109  12.5  4.0  410P/NEAT-LINEAR                                         MPEC 2022-A21
0411P         2021 01 24.3598  2.438301  0.580802   46.6537   77.6642   12.3783  20220109  13.5  4.0  411P/Christensen                                         MPEC 2021-J28
0412P         2020 12  5.3291  1.617930  0.479680  155.9260    0.8465    8.9313  20220109  17.0  4.0  412P/WISE                                                MPEC 2021-F20
0413P         2021 07 20.2359  2.139956  0.423212  186.0527   39.0244   15.9783  20220109  14.0  4.0  413P/Larson                                              MPEC 2021-O56
0414P         2021 01 25.3628  0.526347  0.811625  210.7251  257.7894   23.3849  20220109  19.0  4.0  414P/STEREO                                              MPEC 2021-BE3
0415P         2021 02 14.8368  3.313629  0.194710  346.2003  160.2947   31.7920  20220109  12.0  4.0  415P/Tenagra                                             MPEC 2021-N06
0416P         2021 02 15.3982  2.189525  0.454302  134.4876  355.8118    3.3613  20220109  15.5  4.0  416P/Scotti                                              MPEC 2021-L04
0417P         2021 04 22.2470  1.491621  0.554806  129.4833  111.3320    8.1281  20220109  16.5  4.0  417P/NEOWISE                                             MPEC 2021-W31
0418P         2021 10 17.5673  1.702900  0.664734  307.1017  277.6569    5.7975  20220109  13.0  4.0  418P/LINEAR                                              MPEC 2021-L04
0419P         2021 10 27.4611  2.543262  0.277613  187.5016   40.3899    2.8029  20220109  12.5  4.0  419P/PANSTARRS                                           MPEC 2021-S45
0420P         2022 05 22.6295  2.788344  0.495332  157.1178  173.9552   14.5034  20220109  11.5  4.0  420P/Hill                                                MPEC 2021-S45
0421P         2021 01 25.8212  1.646841  0.675526  259.8300   55.3486   10.0799  20220109  14.0  4.0  421P/McNaught                                            MPEC 2021-W31
0422P         2022 01 13.8470  3.105232  0.508742  305.1557   36.0501   39.5367  20220109  11.0  4.0  422P/Christensen                                         MPEC 2022-A21
0423P         2021 09 18.7811  5.419993  0.120889   80.3185   33.3092    8.3458  20220109   8.0  4.0  423P/Lemmon                                              MPEC 2022-A21
0424P         2021 10 31.6337  1.362706  0.691288  312.4747   51.1780    8.6856  20220109  17.0  4.0  424P/LaSagra                                             MPEC 2021-Y10
